NORAD_CAT_ID,OBJECT_NAME,OBJECT_TYPE,EPOCH,MEAN_MOTION,ECCENTRICITY,INCLINATION,RA_OF_ASC_NODE,ARG_OF_PERICENTER,MEAN_ANOMALY,BSTAR,MEAN_MOTION_DOT,MEAN_MOTION_DDOT,TLE_LINE0,TLE_LINE1,TLE_LINE2,SEMIMAJOR_AXIS,PERIOD,APOGEE,PERIGEE,DECAYED
55639.0,STARLINK-5508,PAYLOAD,2024-02-27 14:23:59,14.98328194,0.0002969,69.9984,252.9917,269.9888,90.093,-4.7282e-05,-6.57e-06,0.0,0 STARLINK-5508,1 55639U 23021M   24058.59999087 -.00000657  00000-0 -47282-4 0  9998,2 55639  69.9984 252.9917 0002969 269.9888  90.0930 14.98328194 57783,6950.198,96.107,574.127,570.0,0.0
55639.0,STARLINK-5508,PAYLOAD,2024-02-27 19:12:23,14.98328949,0.0002974,69.9984,252.4869,269.7934,90.2884,-3.7576e-05,-5.41e-06,0.0,0 STARLINK-5508,1 55639U 23021M   24058.80027021 -.00000541  00000-0 -37576-4 0  9999,2 55639  69.9984 252.4869 0002974 269.7934  90.2884 14.98328949 57519,6950.196,96.107,574.128,569.994,0.0
55639.0,STARLINK-5508,PAYLOAD,2024-02-27 22:24:39,14.98328901,0.0002957,69.9985,252.1504,269.926,90.156,-3.4345e-05,-5.03e-06,0.0,0 STARLINK-5508,1 55639U 23021M   24058.93379030 -.00000503  00000-0 -34345-4 0  9992,2 55639  69.9985 252.1504 0002957 269.9260  90.1560 14.98328901 57831,6950.196,96.107,574.116,570.006,0.0
55639.0,STARLINK-5508,PAYLOAD,2024-02-28 14:26:00,14.9832866,0.0003007,69.9982,250.4666,269.7191,90.3623,2.7536e-05,2.36e-06,0.0,0 STARLINK-5508,1 55639U 23021M   24059.60138895  .00000236  00000-0  27536-4 0  9994,2 55639  69.9982 250.4666 0003007 269.7191  90.3623 14.98328660 57931,6950.197,96.107,574.152,569.972,0.0
55639.0,STARLINK-5508,PAYLOAD,2024-02-28 19:14:24,14.98329421,0.000301,69.9983,249.9618,270.0061,90.0754,3.5173e-05,3.27e-06,0.0,0 STARLINK-5508,1 55639U 23021M   24059.80166839  .00000327  00000-0  35173-4 0  9992,2 55639  69.9983 249.9618 0003010 270.0061  90.0754 14.98329421 57665,6950.195,96.107,574.152,569.968,0.0
55639.0,STARLINK-5508,PAYLOAD,2024-02-28 22:26:40,14.98329658,0.0003016,69.9984,249.6251,270.1144,89.9669,3.6356e-05,3.41e-06,0.0,0 STARLINK-5508,1 55639U 23021M   24059.93518828  .00000341  00000-0  36356-4 0  9995,2 55639  69.9984 249.6251 0003016 270.1144  89.9669 14.98329658 57984,6950.194,96.107,574.155,569.963,0.0
55639.0,STARLINK-5508,PAYLOAD,2024-02-29 14:28:00,14.98330883,0.0003027,69.9985,247.9418,270.2401,89.8411,5.507e-05,5.64e-06,0.0,0 STARLINK-5508,1 55639U 23021M   24060.60278673  .00000564  00000-0  55070-4 0  9993,2 55639  69.9985 247.9418 0003027 270.2401  89.8411 14.98330883 58088,6950.19,96.107,574.159,569.951,0.0
55639.0,STARLINK-5508,PAYLOAD,2024-02-29 20:52:32,14.98331914,0.0003049,69.9986,247.2686,270.4802,89.6007,3.7473e-05,3.54e-06,0.0,0 STARLINK-5508,1 55639U 23021M   24060.86982629  .00000354  00000-0  37473-4 0  9998,2 55639  69.9986 247.2686 0003049 270.4802  89.6007 14.98331914 57826,6950.187,96.107,574.171,569.933,0.0
55639.0,STARLINK-5508,PAYLOAD,2024-02-29 22:28:40,14.98332534,0.0003047,69.9986,247.1002,270.4884,89.5926,4.3458e-05,4.26e-06,0.0,0 STARLINK-5508,1 55639U 23021M   24060.93658563  .00000426  00000-0  43458-4 0  9993,2 55639  69.9986 247.1002 0003047 270.4884  89.5926 14.98332534 58138,6950.185,96.107,574.168,569.932,0.0
55639.0,STARLINK-5508,PAYLOAD,2024-03-01 14:30:01,14.9833024,0.0003009,69.9988,245.4169,270.7536,89.3278,-9.9886e-06,-2.12e-06,0.0,0 STARLINK-5508,1 55639U 23021M   24061.60418803 -.00000212  00000-0 -99886-5 0  9991,2 55639  69.9988 245.4169 0003009 270.7536  89.3278 14.98330240 58231,6950.192,96.107,574.148,569.966,0.0
55639.0,STARLINK-5508,PAYLOAD,2024-03-01 20:54:34,14.98330185,0.0003025,69.9988,244.7436,270.8251,89.2562,-1.4629e-05,-2.68e-06,0.0,0 STARLINK-5508,1 55639U 23021M   24061.87122800 -.00000268  00000-0 -14629-4 0  9991,2 55639  69.9988 244.7436 0003025 270.8251  89.2562 14.98330185 57976,6950.192,96.107,574.16,569.955,0.0
55639.0,STARLINK-5508,PAYLOAD,2024-03-02 14:32:02,14.98333449,0.0003014,69.999,242.8921,271.2588,88.8226,9.1642e-07,-8.2e-07,0.0,0 STARLINK-5508,1 55639U 23021M   24062.60558434 -.00000082  00000-0  91642-6 0  9994,2 55639  69.9990 242.8921 0003014 271.2588  88.8226 14.98333449 58387,6950.182,96.107,574.142,569.952,0.0
55639.0,STARLINK-5508,PAYLOAD,2024-03-02 20:56:34,14.98334053,0.0002981,69.999,242.219,270.1538,89.928,7.0292e-06,-9e-08,0.0,0 STARLINK-5508,1 55639U 23021M   24062.87262306 -.00000009  00000-0  70292-5 0  9999,2 55639  69.9990 242.2190 0002981 270.1538  89.9280 14.98334053 58423,6950.18,96.107,574.117,569.974,0.0
55639.0,STARLINK-5508,PAYLOAD,2024-03-03 04:57:15,14.98331348,0.0002968,69.999,241.3774,269.3459,90.7359,-2.0909e-06,-1.18e-06,0.0,0 STARLINK-5508,1 55639U 23021M   24063.20642430 -.00000118  00000-0 -20909-5 0  9999,2 55639  69.9990 241.3774 0002968 269.3459  90.7359 14.98331348 58171,6950.189,96.107,574.117,569.991,0.0
55639.0,STARLINK-5508,PAYLOAD,2024-03-03 14:34:03,14.98329138,0.0002986,69.9988,240.3674,268.373,91.7087,-1.2158e-06,-1.08e-06,0.0,0 STARLINK-5508,1 55639U 23021M   24063.60698520 -.00000108  00000-0 -12158-5 0  9990,2 55639  69.9988 240.3674 0002986 268.3730  91.7087 14.98329138 58530,6950.196,96.107,574.136,569.985,0.0
55639.0,STARLINK-5508,PAYLOAD,2024-03-03 20:58:35,14.98329378,0.0002974,69.9989,239.6941,268.5007,91.5812,2.1744e-06,-6.7e-07,0.0,0 STARLINK-5508,1 55639U 23021M   24063.87402501 -.00000067  00000-0  21744-5 0  9995,2 55639  69.9989 239.6941 0002974 268.5007  91.5812 14.98329378 58579,6950.195,96.107,574.127,569.993,0.0
55639.0,STARLINK-5508,PAYLOAD,2024-03-04 04:59:15,14.98331846,0.0002997,69.9989,238.8523,269.4741,90.6074,2.4137e-05,1.95e-06,0.0,0 STARLINK-5508,1 55639U 23021M   24064.20782248  .00000195  00000-0  24137-4 0  9991,2 55639  69.9989 238.8523 0002997 269.4741  90.6074 14.98331846 58322,6950.187,96.107,574.135,569.969,0.0
55639.0,STARLINK-5508,PAYLOAD,2024-03-04 14:36:03,14.98335164,0.0002999,69.9988,237.8421,269.0996,90.982,1.5266e-05,8.9e-07,0.0,0 STARLINK-5508,1 55639U 23021M   24064.60837948  .00000089  00000-0  15266-4 0  9998,2 55639  69.9988 237.8421 0002999 269.0996  90.9820 14.98335164 58685,6950.177,96.107,574.126,569.958,0.0
55639.0,STARLINK-5508,PAYLOAD,2024-03-04 21:00:36,14.98335629,0.0002997,69.999,237.1687,268.8095,91.272,2.0879e-05,1.56e-06,0.0,0 STARLINK-5508,1 55639U 23021M   24064.87541808  .00000156  00000-0  20879-4 0  9995,2 55639  69.9990 237.1687 0002997 268.8095  91.2720 14.98335629 58724,6950.175,96.107,574.123,569.958,0.0
55639.0,STARLINK-5508,PAYLOAD,2024-03-05 14:38:05,14.9832468,0.0002962,69.9993,235.3171,268.5908,91.4911,-5.0264e-05,-6.93e-06,0.0,0 STARLINK-5508,1 55639U 23021M   24065.60978673 -.00000693  00000-0 -50264-4 0  9990,2 55639  69.9993 235.3171 0002962 268.5908  91.4911 14.98324680 58838,6950.209,96.107,574.133,570.016,0.0
55639.0,STARLINK-5508,PAYLOAD,2024-03-05 21:02:37,14.98325073,0.0002979,69.9994,234.6447,270.2877,89.7941,-4.0621e-05,-5.78e-06,0.0,0 STARLINK-5508,1 55639U 23021M   24065.87682713 -.00000578  00000-0 -40621-4 0  9994,2 55639  69.9994 234.6447 0002979 270.2877  89.7941 14.98325073 58571,6950.208,96.107,574.144,570.003,0.0
55639.0,STARLINK-5508,PAYLOAD,2024-03-06 14:40:06,14.98319104,0.0003647,69.9994,232.7916,266.6655,93.4087,0.00013427,1.509e-05,0.0,0 STARLINK-5508,1 55639U 23021M   24066.61118532  .00001509  00000-0  13427-3 0  9996,2 55639  69.9994 232.7916 0003647 266.6655  93.4087 14.98319104 58983,6950.227,96.108,574.626,569.557,0.0
55639.0,STARLINK-5508,PAYLOAD,2024-03-06 19:28:30,14.98331144,0.0002814,69.9995,232.2866,266.2289,93.8549,-2.7763e-05,-4.24e-06,0.0,0 STARLINK-5508,1 55639U 23021M   24066.81146390 -.00000424  00000-0 -27763-4 0  9997,2 55639  69.9995 232.2866 0002814 266.2289  93.8549 14.98331144 58713,6950.189,96.107,574.01,570.099,0.0
55639.0,STARLINK-5508,PAYLOAD,2024-03-07 14:42:07,14.98324365,0.0002937,69.9996,230.2669,271.7996,88.2826,5.6076e-05,5.76e-06,0.0,0 STARLINK-5508,1 55639U 23021M   24067.61258685  .00000576  00000-0  56076-4 0  9992,2 55639  69.9996 230.2669 0002937 271.7996  88.2826 14.98324365 59135,6950.21,96.107,574.117,570.034,0.0
55639.0,STARLINK-5508,PAYLOAD,2024-03-08 03:31:11,14.98328872,0.0002993,69.9997,228.9207,272.3581,87.7235,6.7388e-05,7.11e-06,0.0,0 STARLINK-5508,1 55639U 23021M   24068.14666448  .00000711  00000-0  67388-4 0  9990,2 55639  69.9997 228.9207 0002993 272.3581  87.7235 14.98328872 58917,6950.196,96.107,574.142,569.981,0.0
55639.0,STARLINK-5508,PAYLOAD,2024-03-08 11:31:52,14.98324035,0.000302,69.9997,228.0793,271.8268,88.2545,0.00020313,2.331e-05,0.0,0 STARLINK-5508,1 55639U 23021M   24068.48046344  .00002331  00000-0  20313-3 0  9990,2 55639  69.9997 228.0793 0003020 271.8268  88.2545 14.98324035 59262,6950.211,96.107,574.175,569.977,0.0
55639.0,STARLINK-5508,PAYLOAD,2024-03-09 03:33:12,14.98333287,0.0003,69.9999,226.3961,272.0568,88.0248,3.9777e-05,3.82e-06,0.0,0 STARLINK-5508,1 55639U 23021M   24069.14806064  .00000382  00000-0  39777-4 0  9996,2 55639  69.9999 226.3961 0003000 272.0568  88.0248 14.98333287 59061,6950.183,96.107,574.133,569.963,0.0
55639.0,STARLINK-5508,PAYLOAD,2024-03-09 11:33:53,14.98328671,0.0002929,70.0,225.5548,271.2949,88.7875,-1.3553e-05,-2.55e-06,0.0,0 STARLINK-5508,1 55639U 23021M   24069.48186489 -.00000255  00000-0 -13553-4 0  9990,2 55639  70.0000 225.5548 0002929 271.2949  88.7875 14.98328671 59415,6950.197,96.107,574.098,570.026,0.0
55639.0,STARLINK-5508,PAYLOAD,2024-03-10 03:35:13,14.98354058,0.0003044,70.0005,223.8711,277.0874,82.9939,-0.00042139,-5.12e-05,0.0,0 STARLINK-5508,1 55639U 23021M   24070.14945719 -.00005120  00000-0 -42139-3 0  9991,2 55639  70.0005 223.8711 0003044 277.0874  82.9939 14.98354058 59216,6950.118,96.105,574.099,569.868,0.0
55639.0,STARLINK-5508,PAYLOAD,2024-03-10 11:35:53,14.98332532,0.000287,69.999,223.0296,272.3999,87.6832,-3.6567e-05,-5.29e-06,0.0,0 STARLINK-5508,1 55639U 23021M   24070.48326240 -.00000529  00000-0 -36567-4 0  9997,2 55639  69.9990 223.0296 0002870 272.3999  87.6832 14.98332532 59260,6950.185,96.107,574.045,570.055,0.0
